ONEWEB-0228             
1 48780U 21045P   24053.92777252  .00000093  00000+0  21266-3 0  9995
2 48780  87.8938  67.4128 0001992  88.2764 271.8594 13.15548896133199
